{
    "links": {
        "self": "http://www.neowsapp.com/rest/v1/neo/3879551?api_key=iIulBulltgU6a56xZRHN4H3l9WmuAYTsLGpBGhQ2"
    },
    "id": "3879551",
    "neo_reference_id": "3879551",
    "name": "(2019 UT5)",
    "designation": "2019 UT5",
    "nasa_jpl_url": "http://ssd.jpl.nasa.gov/sbdb.cgi?sstr=3879551",
    "absolute_magnitude_h": 28.4,
    "estimated_diameter": {
        "kilometers": {
            "estimated_diameter_min": 0.0055533491,
            "estimated_diameter_max": 0.0124176661
        },
        "meters": {
            "estimated_diameter_min": 5.5533491158,
            "estimated_diameter_max": 12.4176661257
        },
        "miles": {
            "estimated_diameter_min": 0.0034506901,
            "estimated_diameter_max": 0.0077159776
        },
        "feet": {
            "estimated_diameter_min": 18.2196499131,
            "estimated_diameter_max": 40.740375732
        }
    },
    "is_potentially_hazardous_asteroid": false,
    "close_approach_data": [
        {
            "close_approach_date": "2019-10-22",
            "close_approach_date_full": "2019-Oct-22 22:25",
            "epoch_date_close_approach": 1571783100000,
            "relative_velocity": {
                "kilometers_per_second": "14.5117345052",
                "kilometers_per_hour": "52242.2442187286",
                "miles_per_hour": "32461.2989146872"
            },
            "miss_distance": {
                "astronomical": "0.002750429",
                "lunar": "1.069916881",
                "kilometers": "411458.31998623",
                "miles": "255668.344540774"
            },
            "orbiting_body": "Earth"
        },
        {
            "close_approach_date": "2019-10-22",
            "close_approach_date_full": "2019-Oct-22 22:47",
            "epoch_date_close_approach": 1571784420000,
            "relative_velocity": {
                "kilometers_per_second": "15.5377855801",
                "kilometers_per_hour": "55936.0280883647",
                "miles_per_hour": "34756.4725641286"
            },
            "miss_distance": {
                "astronomical": "0.0028833651",
                "lunar": "1.1216290239",
                "kilometers": "431345.277392337",
                "miles": "268025.5268627706"
            },
            "orbiting_body": "Moon"
        }
    ],
    "orbital_data": {
        "orbit_id": "4",
        "orbit_determination_date": "2019-12-04 07:20:13",
        "first_observation_date": "2019-10-24",
        "last_observation_date": "2019-10-29",
        "data_arc_in_days": 5,
        "observations_used": 24,
        "orbit_uncertainty": "8",
        "minimum_orbit_intersection": ".00239312",
        "jupiter_tisserand_invariant": "3.227",
        "epoch_osculation": "2458784.5",
        "eccentricity": ".6422240082746563",
        "semi_major_axis": "2.369141888159394",
        "inclination": "4.710236717588929",
        "ascending_node_longitude": "30.74797315821849",
        "orbital_period": "1331.941142291498",
        "perihelion_distance": ".8476220885742805",
        "perihelion_argument": "306.6439184684198",
        "aphelion_distance": "3.890661687744507",
        "perihelion_time": "2458743.785455996050",
        "mean_anomaly": "11.00441706921478",
        "mean_motion": ".2702822133571524",
        "equinox": "J2000",
        "orbit_class": {
            "orbit_class_type": "APO",
            "orbit_class_description": "Near-Earth asteroid orbits which cross the Earth’s orbit similar to that of 1862 Apollo",
            "orbit_class_range": "a (semi-major axis) > 1.0 AU; q (perihelion) < 1.017 AU"
        }
    },
    "is_sentry_object": false
}